[
{
    "model": "accounts.address",
    "pk": 1,
    "fields": {
        "division": 1,
        "district": 1,
        "thana": 1,
        "post_office": 1,
        "post_code": 1,
        "address_info": "null habi jabi"
    }
},
{
    "model": "accounts.address",
    "pk": 2,
    "fields": {
        "division": 1,
        "district": 1,
        "thana": 1,
        "post_office": 1,
        "post_code": 1,
        "address_info": "shonarbangla"
    }
},
{
    "model": "accounts.address",
    "pk": 3,
    "fields": {
        "division": 1,
        "district": 1,
        "thana": 1,
        "post_office": 1,
        "post_code": 1,
        "address_info": "shonarbangla"
    }
},
{
    "model": "accounts.address",
    "pk": 4,
    "fields": {
        "division": 1,
        "district": 1,
        "thana": 1,
        "post_office": 1,
        "post_code": 1,
        "address_info": "null habi jabi"
    }
},
{
    "model": "accounts.address",
    "pk": 5,
    "fields": {
        "division": 1,
        "district": 1,
        "thana": 1,
        "post_office": 1,
        "post_code": 1,
        "address_info": "null habi jabi"
    }
},
{
    "model": "accounts.address",
    "pk": 6,
    "fields": {
        "division": 1,
        "district": 1,
        "thana": 1,
        "post_office": 1,
        "post_code": 1,
        "address_info": "null habi jabi"
    }
},
{
    "model": "accounts.address",
    "pk": 7,
    "fields": {
        "division": 1,
        "district": 1,
        "thana": 1,
        "post_office": 1,
        "post_code": 1,
        "address_info": "fdsfdsf"
    }
},
{
    "model": "accounts.address",
    "pk": 8,
    "fields": {
        "division": 1,
        "district": 1,
        "thana": 1,
        "post_office": 1,
        "post_code": 1,
        "address_info": "shonarbangla"
    }
},
{
    "model": "accounts.address",
    "pk": 9,
    "fields": {
        "division": 1,
        "district": 1,
        "thana": 1,
        "post_office": 1,
        "post_code": 1,
        "address_info": "shonarbangla"
    }
},
{
    "model": "accounts.address",
    "pk": 10,
    "fields": {
        "division": 1,
        "district": 1,
        "thana": 1,
        "post_office": 1,
        "post_code": 1,
        "address_info": "shonarbangla"
    }
},
{
    "model": "accounts.address",
    "pk": 11,
    "fields": {
        "division": 1,
        "district": 1,
        "thana": 1,
        "post_office": 1,
        "post_code": 1,
        "address_info": "shonarbangla"
    }
},
{
    "model": "accounts.address",
    "pk": 12,
    "fields": {
        "division": 1,
        "district": 1,
        "thana": 1,
        "post_office": 1,
        "post_code": 1,
        "address_info": "shonarbangla"
    }
},
{
    "model": "accounts.address",
    "pk": 13,
    "fields": {
        "division": 1,
        "district": 1,
        "thana": 1,
        "post_office": 1,
        "post_code": 1,
        "address_info": "shonarbangla"
    }
},
{
    "model": "accounts.address",
    "pk": 14,
    "fields": {
        "division": 1,
        "district": 1,
        "thana": 1,
        "post_office": 1,
        "post_code": 1,
        "address_info": "shonarbangla"
    }
},
{
    "model": "accounts.address",
    "pk": 15,
    "fields": {
        "division": 1,
        "district": 1,
        "thana": 1,
        "post_office": 1,
        "post_code": 1,
        "address_info": "shonarbangla"
    }
},
{
    "model": "accounts.address",
    "pk": 16,
    "fields": {
        "division": 1,
        "district": 1,
        "thana": 1,
        "post_office": 1,
        "post_code": 1,
        "address_info": "shonarbangla"
    }
},
{
    "model": "accounts.address",
    "pk": 17,
    "fields": {
        "division": 1,
        "district": 1,
        "thana": 1,
        "post_office": 1,
        "post_code": 1,
        "address_info": "shonarbangla"
    }
},
{
    "model": "accounts.address",
    "pk": 18,
    "fields": {
        "division": 1,
        "district": 1,
        "thana": 1,
        "post_office": 1,
        "post_code": 1,
        "address_info": "shonarbangla"
    }
},
{
    "model": "accounts.address",
    "pk": 19,
    "fields": {
        "division": 1,
        "district": 1,
        "thana": 1,
        "post_office": 1,
        "post_code": 1,
        "address_info": "shonarbangla"
    }
},
{
    "model": "accounts.address",
    "pk": 20,
    "fields": {
        "division": 1,
        "district": 1,
        "thana": 1,
        "post_office": 1,
        "post_code": 1,
        "address_info": "fdsryser"
    }
},
{
    "model": "accounts.address",
    "pk": 21,
    "fields": {
        "division": 1,
        "district": 1,
        "thana": 1,
        "post_office": 1,
        "post_code": 1,
        "address_info": "gdfgfdgdfg"
    }
},
{
    "model": "accounts.address",
    "pk": 22,
    "fields": {
        "division": 1,
        "district": 1,
        "thana": 1,
        "post_office": 1,
        "post_code": 1,
        "address_info": "dfsdf"
    }
},
{
    "model": "accounts.address",
    "pk": 23,
    "fields": {
        "division": 1,
        "district": 1,
        "thana": 1,
        "post_office": 1,
        "post_code": 1,
        "address_info": "gfdgfdgfd"
    }
},
{
    "model": "accounts.address",
    "pk": 24,
    "fields": {
        "division": 1,
        "district": 1,
        "thana": 1,
        "post_office": 1,
        "post_code": 1,
        "address_info": "dfsdf"
    }
},
{
    "model": "accounts.address",
    "pk": 25,
    "fields": {
        "division": 1,
        "district": 1,
        "thana": 1,
        "post_office": 1,
        "post_code": 1,
        "address_info": "gfdgfdgfd"
    }
},
{
    "model": "accounts.address",
    "pk": 26,
    "fields": {
        "division": 1,
        "district": 1,
        "thana": 1,
        "post_office": 1,
        "post_code": null,
        "address_info": "fgdsghdffsd"
    }
},
{
    "model": "accounts.address",
    "pk": 27,
    "fields": {
        "division": 2,
        "district": 1,
        "thana": 1,
        "post_office": 1,
        "post_code": null,
        "address_info": "gfdhfhsdfff"
    }
},
{
    "model": "accounts.address",
    "pk": 28,
    "fields": {
        "division": null,
        "district": null,
        "thana": null,
        "post_office": null,
        "post_code": null,
        "address_info": "tdhthtfgh"
    }
},
{
    "model": "accounts.address",
    "pk": 29,
    "fields": {
        "division": null,
        "district": null,
        "thana": null,
        "post_office": null,
        "post_code": null,
        "address_info": "trdytryery"
    }
},
{
    "model": "accounts.address",
    "pk": 30,
    "fields": {
        "division": 1,
        "district": 1,
        "thana": 1,
        "post_office": 1,
        "post_code": 1,
        "address_info": "We"
    }
},
{
    "model": "accounts.address",
    "pk": 31,
    "fields": {
        "division": 1,
        "district": 3,
        "thana": 52,
        "post_office": 1,
        "post_code": 1,
        "address_info": "WE"
    }
},
{
    "model": "accounts.address",
    "pk": 32,
    "fields": {
        "division": 1,
        "district": 1,
        "thana": 1,
        "post_office": 1,
        "post_code": 1,
        "address_info": "We"
    }
},
{
    "model": "accounts.address",
    "pk": 33,
    "fields": {
        "division": 1,
        "district": 3,
        "thana": 52,
        "post_office": 1,
        "post_code": 1,
        "address_info": "WE"
    }
},
{
    "model": "accounts.address",
    "pk": 34,
    "fields": {
        "division": 1,
        "district": 1,
        "thana": 1,
        "post_office": 1,
        "post_code": 1,
        "address_info": "We"
    }
},
{
    "model": "accounts.address",
    "pk": 35,
    "fields": {
        "division": 1,
        "district": 3,
        "thana": 52,
        "post_office": 1,
        "post_code": 1,
        "address_info": "WE"
    }
}
]
